RADFXSAT (FOX-1B)       
1 43017U 17073E   26068.59518419  .00011352  00000+0  51457-3 0  9993
2 43017  97.4852 297.8938 0154575 312.4525  46.3719 15.10873817450344
STARLINK-35807          
1 66358U 25254L   26068.74655106  .00025894  00000+0  88350-3 0  9996
2 66358  53.1576 232.2430 0000905  70.7680 289.3418 15.30194012 18982
